[
  {
    "COMMENT": "GENERATED VIA SPACETRACK.ORG API",
    "ORIGINATOR": "18 SPCS",
    "NORAD_CAT_ID": "43682",
    "OBJECT_NAME": "H-2A R/B",
    "OBJECT_TYPE": "ROCKET BODY",
    "CLASSIFICATION_TYPE": "U",
    "INTLDES": "18084L",
    "EPOCH": "2020-03-19 13:42:04",
    "EPOCH_MICROSECONDS": "219488",
    "MEAN_MOTION": "15.02786334",
    "ECCENTRICITY": "0.0058215",
    "INCLINATION": "98.9036",
    "RA_OF_ASC_NODE": "273.3434",
    "ARG_OF_PERICENTER": "68.1105",
    "MEAN_ANOMALY": "292.6293",
    "EPHEMERIS_TYPE": "0",
    "ELEMENT_SET_NO": "999",
    "REV_AT_EPOCH": "7615",
    "BSTAR": "-0.000025764",
    "MEAN_MOTION_DOT": "-0.00000442",
    "MEAN_MOTION_DDOT": "0",
    "FILE": "2720640",
    "TLE_LINE0": "0 H-2A R/B",
    "TLE_LINE1": "1 43682U 18084L   20079.57088217 -.00000442 +00000-0 -25764-4 0  9990",
    "TLE_LINE2": "2 43682 098.9036 273.3434 0058215 068.1105 292.6293 15.02786334076159",
    "OBJECT_ID": "2018-084L",
    "OBJECT_NUMBER": "43682",
    "SEMIMAJOR_AXIS": "6936.446",
    "PERIOD": "95.822",
    "APOGEE": "598.692",
    "PERIGEE": "517.931",
    "DECAYED": "0"
  },
  {
    "COMMENT": "GENERATED VIA SPACETRACK.ORG API",
    "ORIGINATOR": "18 SPCS",
    "NORAD_CAT_ID": "43682",
    "OBJECT_NAME": "H-2A R/B",
    "OBJECT_TYPE": "ROCKET BODY",
    "CLASSIFICATION_TYPE": "U",
    "INTLDES": "18084L",
    "EPOCH": "2020-03-19 15:17:56",
    "EPOCH_MICROSECONDS": "999328",
    "MEAN_MOTION": "15.02786277",
    "ECCENTRICITY": "0.0058221",
    "INCLINATION": "98.9036",
    "RA_OF_ASC_NODE": "273.4198",
    "ARG_OF_PERICENTER": "67.8863",
    "MEAN_ANOMALY": "292.8523",
    "EPHEMERIS_TYPE": "0",
    "ELEMENT_SET_NO": "999",
    "REV_AT_EPOCH": "7616",
    "BSTAR": "-0.00002592",
    "MEAN_MOTION_DOT": "-0.00000444",
    "MEAN_MOTION_DDOT": "0",
    "FILE": "2720721",
    "TLE_LINE0": "0 H-2A R/B",
    "TLE_LINE1": "1 43682U 18084L   20079.63746527 -.00000444  00000-0 -25920-4 0  9998",
    "TLE_LINE2": "2 43682  98.9036 273.4198 0058221  67.8863 292.8523 15.02786277 76166",
    "OBJECT_ID": "2018-084L",
    "OBJECT_NUMBER": "43682",
    "SEMIMAJOR_AXIS": "6936.446",
    "PERIOD": "95.822",
    "APOGEE": "598.696",
    "PERIGEE": "517.927",
    "DECAYED": "0"
  },
  {
    "COMMENT": "GENERATED VIA SPACETRACK.ORG API",
    "ORIGINATOR": "18 SPCS",
    "NORAD_CAT_ID": "43682",
    "OBJECT_NAME": "H-2A R/B",
    "OBJECT_TYPE": "ROCKET BODY",
    "CLASSIFICATION_TYPE": "U",
    "INTLDES": "18084L",
    "EPOCH": "2020-03-19 23:17:20",
    "EPOCH_MICROSECONDS": "904576",
    "MEAN_MOTION": "15.02786046",
    "ECCENTRICITY": "0.0058227",
    "INCLINATION": "98.9036",
    "RA_OF_ASC_NODE": "273.802",
    "ARG_OF_PERICENTER": "66.8187",
    "MEAN_ANOMALY": "293.9153",
    "EPHEMERIS_TYPE": "0",
    "ELEMENT_SET_NO": "999",
    "REV_AT_EPOCH": "7621",
    "BSTAR": "-0.000025729",
    "MEAN_MOTION_DOT": "-0.00000442",
    "MEAN_MOTION_DDOT": "0",
    "FILE": "2720882",
    "TLE_LINE0": "0 H-2A R/B",
    "TLE_LINE1": "1 43682U 18084L   20079.97038084 -.00000442 +00000-0 -25729-4 0  9992",
    "TLE_LINE2": "2 43682 098.9036 273.8020 0058227 066.8187 293.9153 15.02786046076219",
    "OBJECT_ID": "2018-084L",
    "OBJECT_NUMBER": "43682",
    "SEMIMAJOR_AXIS": "6936.447",
    "PERIOD": "95.822",
    "APOGEE": "598.701",
    "PERIGEE": "517.923",
    "DECAYED": "0"
  },
  {
    "COMMENT": "GENERATED VIA SPACETRACK.ORG API",
    "ORIGINATOR": "18 SPCS",
    "NORAD_CAT_ID": "43682",
    "OBJECT_NAME": "H-2A R/B",
    "OBJECT_TYPE": "ROCKET BODY",
    "CLASSIFICATION_TYPE": "U",
    "INTLDES": "18084L",
    "EPOCH": "2020-03-20 13:40:15",
    "EPOCH_MICROSECONDS": "974976",
    "MEAN_MOTION": "15.02785406",
    "ECCENTRICITY": "0.0058166",
    "INCLINATION": "98.9034",
    "RA_OF_ASC_NODE": "274.4896",
    "ARG_OF_PERICENTER": "64.7115",
    "MEAN_ANOMALY": "296.0118",
    "EPHEMERIS_TYPE": "0",
    "ELEMENT_SET_NO": "999",
    "REV_AT_EPOCH": "7630",
    "BSTAR": "-0.000027774",
    "MEAN_MOTION_DOT": "-0.0000047",
    "MEAN_MOTION_DDOT": "0",
    "FILE": "2721321",
    "TLE_LINE0": "0 H-2A R/B",
    "TLE_LINE1": "1 43682U 18084L   20080.56962934 -.00000470 +00000-0 -27774-4 0  9992",
    "TLE_LINE2": "2 43682 098.9034 274.4896 0058166 064.7115 296.0118 15.02785406076309",
    "OBJECT_ID": "2018-084L",
    "OBJECT_NUMBER": "43682",
    "SEMIMAJOR_AXIS": "6936.449",
    "PERIOD": "95.822",
    "APOGEE": "598.661",
    "PERIGEE": "517.967",
    "DECAYED": "0"
  },
  {
    "COMMENT": "GENERATED VIA SPACETRACK.ORG API",
    "ORIGINATOR": "18 SPCS",
    "NORAD_CAT_ID": "43682",
    "OBJECT_NAME": "H-2A R/B",
    "OBJECT_TYPE": "ROCKET BODY",
    "CLASSIFICATION_TYPE": "U",
    "INTLDES": "18084L",
    "EPOCH": "2020-03-20 23:15:32",
    "EPOCH_MICROSECONDS": "667840",
    "MEAN_MOTION": "15.02785169",
    "ECCENTRICITY": "0.0058176",
    "INCLINATION": "98.9033",
    "RA_OF_ASC_NODE": "274.9481",
    "ARG_OF_PERICENTER": "63.4394",
    "MEAN_ANOMALY": "297.2778",
    "EPHEMERIS_TYPE": "0",
    "ELEMENT_SET_NO": "999",
    "REV_AT_EPOCH": "7636",
    "BSTAR": "-0.000026998",
    "MEAN_MOTION_DOT": "-0.00000459",
    "MEAN_MOTION_DDOT": "0",
    "FILE": "2721438",
    "TLE_LINE0": "0 H-2A R/B",
    "TLE_LINE1": "1 43682U 18084L   20080.96912810 -.00000459 +00000-0 -26998-4 0  9998",
    "TLE_LINE2": "2 43682 098.9033 274.9481 0058176 063.4394 297.2778 15.02785169076366",
    "OBJECT_ID": "2018-084L",
    "OBJECT_NUMBER": "43682",
    "SEMIMAJOR_AXIS": "6936.450",
    "PERIOD": "95.822",
    "APOGEE": "598.668",
    "PERIGEE": "517.961",
    "DECAYED": "0"
  },
  {
    "COMMENT": "GENERATED VIA SPACETRACK.ORG API",
    "ORIGINATOR": "18 SPCS",
    "NORAD_CAT_ID": "43682",
    "OBJECT_NAME": "H-2A R/B",
    "OBJECT_TYPE": "ROCKET BODY",
    "CLASSIFICATION_TYPE": "U",
    "INTLDES": "18084L",
    "EPOCH": "2020-03-21 04:03:11",
    "EPOCH_MICROSECONDS": "36736",
    "MEAN_MOTION": "15.02784742",
    "ECCENTRICITY": "0.0058158",
    "INCLINATION": "98.9032",
    "RA_OF_ASC_NODE": "275.1769",
    "ARG_OF_PERICENTER": "62.7847",
    "MEAN_ANOMALY": "297.9282",
    "EPHEMERIS_TYPE": "0",
    "ELEMENT_SET_NO": "999",
    "REV_AT_EPOCH": "7639",
    "BSTAR": "-0.000030337",
    "MEAN_MOTION_DOT": "-0.00000505",
    "MEAN_MOTION_DDOT": "0",
    "FILE": "2721504",
    "TLE_LINE0": "0 H-2A R/B",
    "TLE_LINE1": "1 43682U 18084L   20081.16887774 -.00000505  00000-0 -30337-4 0  9995",
    "TLE_LINE2": "2 43682  98.9032 275.1769 0058158  62.7847 297.9282 15.02784742 76398",
    "OBJECT_ID": "2018-084L",
    "OBJECT_NUMBER": "43682",
    "SEMIMAJOR_AXIS": "6936.451",
    "PERIOD": "95.822",
    "APOGEE": "598.657",
    "PERIGEE": "517.975",
    "DECAYED": "0"
  },
  {
    "COMMENT": "GENERATED VIA SPACETRACK.ORG API",
    "ORIGINATOR": "18 SPCS",
    "NORAD_CAT_ID": "43682",
    "OBJECT_NAME": "H-2A R/B",
    "OBJECT_TYPE": "ROCKET BODY",
    "CLASSIFICATION_TYPE": "U",
    "INTLDES": "18084L",
    "EPOCH": "2020-03-21 13:38:27",
    "EPOCH_MICROSECONDS": "688992",
    "MEAN_MOTION": "15.02784853",
    "ECCENTRICITY": "0.0058108",
    "INCLINATION": "98.9031",
    "RA_OF_ASC_NODE": "275.6358",
    "ARG_OF_PERICENTER": "61.4552",
    "MEAN_ANOMALY": "299.2502",
    "EPHEMERIS_TYPE": "0",
    "ELEMENT_SET_NO": "999",
    "REV_AT_EPOCH": "7645",
    "BSTAR": "-0.000025213",
    "MEAN_MOTION_DOT": "-0.00000434",
    "MEAN_MOTION_DDOT": "0",
    "FILE": "2721792",
    "TLE_LINE0": "0 H-2A R/B",
    "TLE_LINE1": "1 43682U 18084L   20081.56837603 -.00000434 +00000-0 -25213-4 0  9993",
    "TLE_LINE2": "2 43682 098.9031 275.6358 0058108 061.4552 299.2502 15.02784853076450",
    "OBJECT_ID": "2018-084L",
    "OBJECT_NUMBER": "43682",
    "SEMIMAJOR_AXIS": "6936.451",
    "PERIOD": "95.822",
    "APOGEE": "598.622",
    "PERIGEE": "518.009",
    "DECAYED": "0"
  },
  {
    "COMMENT": "GENERATED VIA SPACETRACK.ORG API",
    "ORIGINATOR": "18 SPCS",
    "NORAD_CAT_ID": "43682",
    "OBJECT_NAME": "H-2A R/B",
    "OBJECT_TYPE": "ROCKET BODY",
    "CLASSIFICATION_TYPE": "U",
    "INTLDES": "18084L",
    "EPOCH": "2020-03-21 15:14:20",
    "EPOCH_MICROSECONDS": "470560",
    "MEAN_MOTION": "15.02784814",
    "ECCENTRICITY": "0.0058111",
    "INCLINATION": "98.9031",
    "RA_OF_ASC_NODE": "275.7122",
    "ARG_OF_PERICENTER": "61.2323",
    "MEAN_ANOMALY": "299.4718",
    "EPHEMERIS_TYPE": "0",
    "ELEMENT_SET_NO": "999",
    "REV_AT_EPOCH": "7646",
    "BSTAR": "-0.000025162",
    "MEAN_MOTION_DOT": "-0.00000434",
    "MEAN_MOTION_DDOT": "0",
    "FILE": "2721935",
    "TLE_LINE0": "0 H-2A R/B",
    "TLE_LINE1": "1 43682U 18084L   20081.63495915 -.00000434 +00000-0 -25162-4 0  9990",
    "TLE_LINE2": "2 43682 098.9031 275.7122 0058111 061.2323 299.4718 15.02784814076467",
    "OBJECT_ID": "2018-084L",
    "OBJECT_NUMBER": "43682",
    "SEMIMAJOR_AXIS": "6936.451",
    "PERIOD": "95.822",
    "APOGEE": "598.624",
    "PERIGEE": "518.007",
    "DECAYED": "0"
  }
]